OBJECT_NAME,OBJECT_ID,EPOCH,MEAN_MOTION,ECCENTRICITY,INCLINATION,RA_OF_ASC_NODE,ARG_OF_PERICENTER,MEAN_ANOMALY,EPHEMERIS_TYPE,CLASSIFICATION_TYPE,NORAD_CAT_ID,ELEMENT_SET_NO,REV_AT_EPOCH,BSTAR,MEAN_MOTION_DOT,MEAN_MOTION_DDOT
PRAETORIAN SDA_613,2025-203M,2026-06-08T02:10:40.966752,13.82764398,.00051053,81.3006,19.3359,210.2592,149.8269,0,U,65576,999,3742,.33289146E-4,.48E-6,0
PRAETORIAN SDA_614,2025-203N,2026-06-08T00:05:25.111104,13.84777761,.00065594,81.3020,19.1108,209.8945,150.1838,0,U,65577,999,3744,.42988312E-4,.6E-6,0
PRAETORIAN SDA_615,2025-203P,2026-06-08T02:57:00.648288,13.84436068,.00084297,81.3027,18.9586,211.3363,148.7293,0,U,65578,999,3745,.14127158E-3,.17E-5,0
PRAETORIAN SDA_616,2025-203Q,2026-06-08T02:04:35.767776,13.83267093,.00047874,81.3070,19.4893,219.5695,140.5112,0,U,65579,999,3742,.12766345E-3,.152E-5,0
PRAETORIAN SDA_617,2025-203R,2026-06-08T02:34:35.424480,13.83149936,.00067906,81.3043,19.3019,210.2050,149.8716,0,U,65580,999,3743,.38952181E-4,.54E-6,0
PRAETORIAN SDA_618,2025-203S,2026-06-08T02:10:19.241472,13.84668880,.00091101,81.3029,18.9221,213.7845,146.2733,0,U,65581,999,3745,.10043527E-3,.125E-5,0
PRAETORIAN SDA_619,2025-203T,2026-06-08T02:53:54.901248,13.83805249,.00075878,81.3050,19.1766,211.5122,148.5581,0,U,65582,999,3807,.1077686E-3,.131E-5,0
PRAETORIAN SDA_620,2025-203U,2026-06-08T03:32:27.106944,13.83617435,.00071116,81.3039,19.1710,206.3710,153.7085,0,U,65583,999,3744,.13274874E-3,.158E-5,0
PRAETORIAN SDA_621,2025-203V,2026-06-08T02:56:25.601856,13.83800726,.00068967,81.3027,19.1158,204.3247,155.7585,0,U,65584,999,3744,.66641758E-4,.86E-6,0
PRAETORIAN SDA_601,2025-203W,2026-06-08T02:08:09.771072,13.83166900,.00047607,81.3049,19.4330,223.6759,136.4021,0,U,65585,999,3742,.11167369E-4,.24E-6,0
NUSANTARA LIMA (NUSANTARA 5),2025-205A,2026-06-08T07:04:27.355584,1.00270960,.00003888,0.0287,147.7843,313.6223,14.2473,0,U,65588,999,263,0,-.342E-5,0
COSMOS 2595 (MOZHAETS 6),2025-206A,2026-06-06T23:06:08.260704,2.14901318,.0065734,64.6449,315.1932,305.2385,54.1449,0,U,65589,999,573,0,-.3E-6,0
COSMOS 2596 [GLONASS-K1],2025-206B,2026-06-08T01:37:38.809920,2.13100758,.00111239,64.6401,315.3034,313.1378,43.1646,0,U,65590,999,571,0,-.31E-6,0
STARLINK-35267,2025-207A,2026-06-08T04:20:20.897088,15.05644967,.0002117,97.3914,227.0889,143.5253,216.6119,0,U,65592,999,4186,-.12573469E-2,-.18151E-3,0
STARLINK-35269,2025-207B,2026-06-08T03:32:31.033824,15.05650474,.00015139,97.3892,227.1347,144.1615,215.9714,0,U,65593,999,4186,.28345806E-3,.4034E-4,0
STARLINK-35191,2025-207C,2026-06-08T03:56:26.518848,15.05655962,.00013756,97.3882,227.1100,127.7604,232.3748,0,U,65594,999,4170,.5393089E-3,.7733E-4,0
STARLINK-35261,2025-207D,2026-06-08T04:44:18.250944,15.05625863,.00025147,97.3928,227.2245,152.5479,207.5882,0,U,65595,999,4188,-.12080383E-2,-.17435E-3,0
STARLINK-35253,2025-207E,2026-06-08T04:08:24.192672,15.05656596,.00019926,97.3859,227.1014,135.3640,224.7748,0,U,65596,999,4166,.25230614E-3,.3585E-4,0
STARLINK-35263,2025-207F,2026-06-08T05:20:10.723776,15.05661684,.00016252,97.3848,227.1917,145.7438,214.3895,0,U,65597,999,4188,.30430574E-3,.4337E-4,0
STARLINK-35248,2025-207G,2026-06-08T03:20:33.633024,15.05656486,.00017815,97.3867,227.1470,127.1985,232.9406,0,U,65598,999,4187,.16004466E-3,.2253E-4,0
STARLINK-35245,2025-207H,2026-06-08T04:32:20.490720,15.05658158,.00020045,97.3858,227.2367,125.9125,234.2288,0,U,65599,999,4188,.31072426E-3,.4429E-4,0
STARLINK-35229,2025-207J,2026-06-08T04:16:22.519488,15.05656679,.00021077,97.3854,227.0932,129.1329,231.0086,0,U,65600,999,4187,.22224941E-3,.3151E-4,0
STARLINK-35234,2025-207K,2026-06-08T04:04:24.898368,15.05657773,.00015961,97.3862,227.1048,91.7477,268.3933,0,U,65601,999,4187,.26110887E-3,.3712E-4,0
STARLINK-35255,2025-207L,2026-06-08T03:40:31.339200,15.05645067,.00005739,97.3861,227.1291,97.6228,262.5064,0,U,65602,999,4187,.76979288E-3,.11065E-3,0
STARLINK-35250,2025-207M,2026-06-08T04:52:16.410144,15.05654488,.00016636,97.3865,227.2154,145.0503,215.0834,0,U,65603,999,4188,.22734347E-3,.3224E-4,0
STARLINK-35251,2025-207N,2026-06-08T03:48:28.053792,15.05658188,.00009683,97.3878,227.1211,85.8511,274.2827,0,U,65604,999,4187,.13760602E-3,.1929E-4,0
STARLINK-35171,2025-207P,2026-06-08T05:04:14.093472,15.05649236,.00011656,97.3888,227.2055,128.4815,231.6517,0,U,65605,999,4172,-.1045737E-3,-.1566E-4,0
STARLINK-35195,2025-207Q,2026-06-08T04:28:21.284544,15.05658015,.00019967,97.3860,227.2407,106.3489,253.7958,0,U,65606,999,4188,.29782359E-3,.4243E-4,0
STARLINK-35156,2025-207R,2026-06-08T04:36:20.126304,15.05670902,.00026662,97.3861,227.2318,119.9859,240.1633,0,U,65607,999,4188,.45181565E-3,.6471E-4,0
STARLINK-35185,2025-207S,2026-06-08T03:36:29.758752,15.05647892,.00016107,97.3877,227.1321,119.7136,240.4252,0,U,65608,999,4187,.16671649E-4,.183E-5,0
